QIANFAN-1               
1 60379U 24140A   25317.21492461  .00000094  00000+0  12719-3 0  9998
2 60379  88.9732 302.3410 0015942 304.6981  55.2668 13.50979048 63365
QIANFAN-2               
1 60380U 24140B   25317.24390280  .00000092  00000+0  12413-3 0  9998
2 60380  88.9718 302.1814 0010812 274.2354  85.7562 13.50971155 63423
QIANFAN-3               
1 60381U 24140C   25317.25214228  .00000095  00000+0  12835-3 0  9998
2 60381  88.9711 302.3154 0012071 288.6870  71.2970 13.50977259 63331
QIANFAN-4               
1 60382U 24140D   25317.22732219  .00000082  00000+0  10846-3 0  9997
2 60382  88.9736 302.2082 0011069 277.3642  82.6251 13.50977643 63454
QIANFAN-5               
1 60383U 24140E   25317.27678478  .00000098  00000+0  13362-3 0  9992
2 60383  88.9710 302.3384 0013541 300.9388  59.0432 13.50974726 63324
QIANFAN-6               
1 60384U 24140F   25317.29738237  .00000084  00000+0  11236-3 0  9998
2 60384  88.9737 302.0745 0011238 284.0237  75.9665 13.50975513 63520
QIANFAN-7               
1 60385U 24140G   25317.30631292  .00000876  00000+0  34960-3 0  9992
2 60385  88.9752 297.1824 0016514 131.2179 229.0442 14.27601440 66191
QIANFAN-8               
1 60386U 24140H   25317.30559320  .00000081  00000+0  10781-3 0  9997
2 60386  88.9739 302.3107 0014721 285.7827  74.1700 13.50973539 63372
